ASTROCAST-0401          
1 55110U 23001DF  26068.71172895  .00009750  00000+0  37868-3 0  9995
2 55110  97.5547 160.5206 0008142 188.4231 171.6872 15.26258462176022
STARLINK-36491          
1 67310U 26002F   26068.41139569  .00036259  00000+0  13209-2 0  9998
2 67310  42.9986 327.0738 0000871 293.9066  66.1694 15.27574029 11037
